POLYGON((530991.7643842499 184359.132003, 530994.44505975 184359.988007875, 530998.820095375 184360.14921175, 530998.7984519999 184358.582160375, 530995.0716843749 184358.288494375, 530992.6136256249 184357.437488, 530994.41001825 184352.656356625, 530997.39369975 184343.99383625, 530999.956883125 184333.715528375, 531000.306267625 184333.35438175, 531000.9462905 184333.166935375, 531005.172914875 184334.33785025, 531005.612995 184332.560858875, 531001.744000125 184331.533652875, 531000.830859625 184331.1925005, 531005.6459752499 184307.309337, 531004.6349246249 184304.703832875, 531004.1134245 184303.824084625, 531000.9462905 184287.616224125, 530999.704378125 184280.994369625, 530999.33231975 184276.958025, 530998.645918375 184260.245309, 530997.8059527499 184240.86960525, 530997.602918125 184238.941407125, 530997.447292625 184235.678591125, 530997.682276875 184230.145175, 530997.800799625 184227.455944875, 530994.7150854999 184227.05980825, 530994.8707109999 184233.586689875, 530994.167819625 184234.06405325, 530992.438418 184233.957833625, 530977.42416175 184229.592833125, 530977.263383125 184229.174203, 530978.4537637499 184225.4902575, 530976.538848375 184224.7879585, 530976.0894925 184225.993863375, 530975.8029766249 184226.255038625, 530975.491725625 184226.16881325, 530974.7259655 184225.0603805, 530973.2995699999 184226.05884475, 530974.4961345 184227.70587325, 530974.413683875 184228.174489125, 530963.284912625 184234.232755, 530962.790209 184233.6404245, 530961.687432 184225.906388375, 530959.304609375 184226.6536745, 530960.643401125 184235.472400125, 530960.3166906249 184235.89977775, 530949.0312632499 184241.82683125, 530947.07718375 184243.101466375, 530941.95700075 184246.20057925, 530939.50100325 184246.537982625, 530914.8709445 184248.57614925, 530914.443231875 184248.09378725, 530912.9642741249 184235.457404375, 530911.1946778749 184235.684839375, 530912.614889625 184247.234033375, 530912.90758925 184252.44879075, 530913.2641881249 184254.2870145, 530913.436303875 184257.12620175, 530913.2291466249 184261.438717375, 530912.7581475 184264.266657875, 530912.3458944999 184266.582245, 530911.769770875 184271.454600375, 530911.332782625 184271.839490125, 530910.579390125 184271.829493, 530907.96158325 184271.58081425, 530907.609106875 184271.764511625, 530907.3277441249 184273.900150375, 530907.8193559999 184274.181319875, 530911.0606956249 184274.642437875, 530911.1761265 184274.996086625, 530909.1303206249 184290.751576625, 530907.6410564999 184303.41170275, 530907.405041625 184303.926555375, 530903.587578375 184303.452940875, 530903.36908425 184303.700370125, 530903.20624425 184304.723827125, 530903.499974625 184305.141207625, 530907.207160125 184305.661058875, 530907.301978375 184306.12592575, 530906.3960522499 184312.825258125, 530905.5313515 184319.279660625, 530902.5177816249 184342.871657375, 530902.0076184999 184346.866763875, 530902.0807933749 184347.154181625, 530904.152365 184347.562814625, 530904.3296338749 184347.417856125, 530905.1211597499 184342.5917375, 530907.938909375 184323.617169, 530908.401663375 184323.432221875, 530939.106270875 184337.28075775, 530939.681364 184337.564426625, 530939.7524776249 184337.950566125, 530937.677814125 184342.587988625, 530937.627313125 184342.8154235, 530939.64529175 184343.690173125, 530941.8219878749 184338.70285075, 530942.3929583749 184338.721595375, 530957.381448875 184344.10380475, 530959.325222 184345.1422575, 530966.7406238749 184348.022683, 530978.6866867499 184353.16746025, 530980.6737464999 184354.292138375, 530984.685999375 184356.072878625, 530988.359174 184357.392500875, 530988.76112075 184357.626184, 530990.24935425 184357.91860025, 530990.2328641249 184358.29599225, 530989.117719625 184360.97897425, 530989.146577375 184361.65503075, 530990.3668463749 184362.26985475, 530990.749211125 184362.017427, 530991.341824875 184360.3878935, 530991.7643842499 184359.132003), (530936.2658473749 184248.5436585, 530925.715261125 184249.2946935, 530925.5410841249 184249.45839675, 530925.6111671249 184252.305081875, 530925.738965625 184255.98402875, 530928.1568297499 184256.12023975, 530932.037161625 184256.150231125, 530936.0937317499 184256.0340145, 530936.2318365 184255.817826375, 530936.1473246249 184253.873382875, 530936.391584625 184253.6022105, 530936.3586043749 184248.7011135, 530936.2658473749 184248.5436585), (530947.122531625 184270.38240725, 530947.1524198749 184273.560247625, 530947.451303375 184273.722701125, 530951.64185575 184273.670216125, 530951.736673875 184273.5465015, 530951.7377045 184270.61109175, 530951.855196625 184270.413648375, 530953.154824375 184270.407400125, 530953.255826375 184270.526116125, 530953.282622875 184273.606484375, 530953.556771125 184273.79393075, 530957.3340397499 184273.847665375, 530957.476267125 184273.650221875, 530957.447409375 184270.5211175, 530957.59066725 184270.348666875, 530959.06241075 184270.3849065, 530959.1386775 184270.50487225, 530959.12115675 184273.7564415, 530959.2705984999 184273.850164625, 530966.2871455 184274.043859125, 530966.404637625 184273.8226725, 530965.424506 184266.955888125, 530962.694360125 184248.82607775, 530962.261494375 184246.215575, 530962.26046375 184245.172123625, 530961.182422 184238.28409525, 530960.882507875 184238.0491625, 530960.5413685 184238.1541325, 530956.2096195 184240.4422275, 530949.896994625 184243.869996375, 530948.974578375 184244.256135875, 530942.740281625 184247.901342375, 530941.4715728749 184248.173764375, 530938.5590049999 184248.366209375, 530938.3920425 184248.539909625, 530939.25674325 184273.484019375, 530939.530891625 184273.67146575, 530945.1447475 184273.632726875, 530945.3859156249 184273.506513, 530945.405497625 184270.35116625, 530945.575552 184270.249945125, 530946.9483546249 184270.2661905, 530947.122531625 184270.38240725), (530936.68428425 184257.449859125, 530936.5142298749 184257.154943625, 530936.37406375 184257.136199, 530925.98425625 184257.04247575, 530925.802864875 184257.23117175, 530926.111024 184264.973955375, 530926.32230375 184265.037687125, 530936.7791023749 184265.037687125, 530936.939881125 184264.94146475, 530936.68428425 184257.449859125), (530923.450961125 184249.817044, 530915.652164 184250.399377375, 530915.25743175 184250.474355875, 530915.12963325 184250.674298625, 530915.632582 184254.920583125, 530915.469742 184259.051900625, 530915.3182389999 184260.92386475, 530913.72281975 184272.690496625, 530913.764045 184272.9841625, 530914.030978875 184273.076636, 530924.066248875 184273.259083875, 530924.460981125 184273.18410525, 530924.5557993749 184272.985412125, 530923.761181625 184251.644021125, 530923.685945375 184249.975748625, 530923.450961125 184249.817044), (530926.2594351249 184266.257338, 530926.40475425 184273.03914675, 530926.666535 184273.28532625, 530937.056342625 184273.3790495, 530937.237734 184273.1903535, 530937.0439749999 184266.34231375, 530936.80899075 184266.209851625, 530926.419183125 184266.16236525, 530926.2594351249 184266.257338), (530949.432179375 184282.40896475, 530950.094876125 184283.436170625, 530951.0471806249 184284.26218425, 530952.308675 184284.742046875, 530953.096078375 184284.8445175, 530954.36581775 184284.619581875, 530955.332551125 184284.0622415, 530956.02513625 184283.317454625, 530956.4951047499 184282.53018, 530957.653535875 184275.854590875, 530957.572115875 184275.540930625, 530957.398969625 184275.4959435, 530948.17686875 184275.33099075, 530948.10678575 184275.4297125, 530948.7571149999 184279.90218225, 530949.432179375 184282.40896475), (530970.9579726249 184281.4767315, 530961.7647294999 184282.4514525, 530961.491611875 184282.311492625, 530961.477183 184281.754152125, 530961.718351 184281.602945375, 530970.496249125 184280.663214375, 530970.83841925 184280.581987625, 530970.8806751249 184280.338307375, 530969.950013875 184276.405683125, 530969.64185475 184275.8558405, 530969.073976125 184275.674642375, 530959.4107644999 184275.520936375, 530959.170627125 184275.744622375, 530958.2183226249 184281.809136375, 530957.814314625 184283.32245325, 530957.058860875 184284.480871625, 530956.1962213749 184285.30313625, 530955.013055 184286.01043375, 530953.722703 184286.3815775, 530951.9561986249 184286.327842875, 530950.5720589999 184285.85172925, 530948.898311625 184284.629579, 530947.785228375 184283.249974, 530947.3564852499 184281.780394625, 530946.4381915 184275.39722175, 530946.189809 184275.257261875, 530939.7174361249 184275.244765375, 530939.574178125 184275.393472875, 530940.024564625 184291.56509375, 530940.151332375 184291.732545875, 530944.068767125 184291.540100875, 530952.503464625 184291.578839875, 530961.03607225 184291.6150795, 530961.670941875 184291.502611625, 530965.1369594999 184290.885288375, 530966.9446891249 184290.647856375, 530971.28983625 184289.911817, 530972.853306 184289.6793835, 530972.722415625 184288.3485145, 530972.592556 184288.059847125, 530971.1826505 184281.640434625, 530970.9579726249 184281.4767315), (530926.572747375 184275.1010565, 530926.35734525 184275.300999375, 530926.46246975 184279.543534875, 530926.3140586249 184283.404929625, 530926.489266125 184283.571132, 530927.5034087499 184283.934777875, 530928.82467975 184284.799530375, 530929.9140583749 184286.229121125, 530930.459263125 184287.453770625, 530930.645807625 184289.0508135, 530931.141541875 184303.085546125, 530931.295106125 184303.349220625, 530937.8612667499 184303.190516, 530938.10243475 184303.0143165, 530937.2768979999 184275.715880625, 530937.16971225 184275.329741125, 530937.06871025 184275.211025125, 530926.572747375 184275.1010565), (530919.728316125 184287.22633575, 530920.35081825 184285.87797175, 530921.0918429999 184284.999473125, 530922.015289875 184284.309670625, 530923.030463 184283.793568375, 530924.3702855 184283.44616775, 530924.5238497499 184283.213734375, 530924.7444051249 184278.5213275, 530924.6990572499 184275.2760065, 530924.44655225 184275.071065125, 530914.1567159999 184275.0035845, 530913.84340375 184275.222271875, 530911.90066125 184290.575377125, 530910.254740875 184302.130819375, 530910.281537375 184302.53320425, 530910.480449375 184302.66941525, 530911.2101373749 184302.774385125, 530917.2259399999 184303.5941505, 530917.419699 184303.554162, 530917.540283 184303.39420775, 530918.732725 184294.271819, 530919.3851153749 184289.113295625, 530919.728316125 184287.22633575), (530928.95660075 184288.169815625, 530928.637104625 184287.13386225, 530927.953795125 184286.276607625, 530927.1014619999 184285.520574, 530926.210995375 184285.178172, 530925.200975375 184284.9844775, 530924.29504925 184285.055707125, 530923.007789125 184285.5468165, 530922.144119 184286.296601875, 530921.508218625 184287.330056, 530921.1588341249 184289.0858035, 530919.5417716249 184300.964903125, 530919.580935625 184302.516958875, 530919.8159198749 184303.093043875, 530920.51056625 184303.4404445, 530928.551562125 184303.4404445, 530929.157574125 184303.134282125, 530929.440998 184302.739395125, 530928.95660075 184288.169815625), (530948.70867525 184296.717369, 530949.98356775 184296.734864, 530950.085600375 184296.902316, 530950.131978875 184302.699406625, 530950.382422625 184302.91184575, 530955.137761625 184302.869358, 530955.32945925 184302.695657625, 530956.867163125 184293.535779625, 530956.73936475 184293.32084125, 530956.539422 184293.203374875, 530948.2500437499 184293.0646645, 530945.625022375 184293.007181, 530940.4821654999 184293.2046245, 530940.193588375 184293.45330325, 530940.5048393749 184303.005569, 530940.8748364999 184303.11803675, 530948.348984375 184302.960581875, 530948.566447875 184302.834368, 530948.54171275 184296.914812375, 530948.70867525 184296.717369), (530919.033669625 184306.168413625, 530919.2418574999 184307.644241125, 530920.014832 184309.153809, 530920.9485851249 184310.223502875, 530922.092587375 184310.8745665, 530923.106729875 184311.21446925, 530924.408418875 184311.328186625, 530925.824508125 184311.099502125, 530927.15814675 184310.509671, 530928.000173625 184309.858607375, 530928.711310125 184308.895133125, 530929.3090771249 184307.279345625, 530929.44409 184305.79602025, 530929.38019075 184305.2149365, 530929.0823378749 184305.052483, 530919.256286375 184305.241179, 530919.062527375 184305.367392875, 530919.033669625 184306.168413625), (530909.2004036249 184312.95772025, 530909.256057875 184313.24763725, 530912.2304636249 184314.558512, 530923.236589625 184319.435865875, 530923.63029125 184319.47460475, 530923.6715165 184319.1821885, 530923.70037425 184316.39173725, 530923.50249275 184316.29926375, 530923.578759625 184313.45882675, 530923.74675275 184313.3338625, 530923.7426302499 184313.163911125, 530923.4942477499 184313.02395125, 530922.239967875 184312.860248125, 530921.15161975 184312.474108625, 530919.70667275 184311.53937625, 530918.69665275 184310.34971675, 530917.90409625 184309.035093, 530917.5320378749 184307.90416675, 530917.30736 184306.7207555, 530917.25067525 184305.43612325, 530917.023936 184305.19869125, 530910.4546836249 184304.265208375, 530910.2866905 184304.4151655, 530909.2004036249 184312.95772025), (530931.2446051249 184305.242428625, 530931.2095636249 184305.826011625, 530930.96942625 184307.99164175, 530930.133583125 184309.854858375, 530929.0411126249 184311.313191, 530927.352936375 184312.421623625, 530925.868825375 184312.87024525, 530925.552421125 184312.9739655, 530925.4101937499 184313.147665875, 530925.2422007499 184320.21189375, 530925.319498125 184320.355602625, 530938.11067975 184326.03897575, 530938.7733766249 184326.09645925, 530938.2024061249 184305.04998375, 530937.903522625 184304.88753025, 530931.53318225 184305.042485875, 530931.2446051249 184305.242428625), (530957.163985375 184321.785193375, 530956.38173525 184324.213248375, 530955.9797885 184324.241990125, 530955.14703725 184323.920832, 530954.802806 184323.9295795, 530952.748755125 184325.32543, 530950.819410875 184324.8030795, 530950.524649875 184324.50691425, 530950.136101375 184322.7524165, 530950.665846625 184322.492490875, 530951.912912125 184320.982923, 530953.70518225 184321.414049625, 530953.85668525 184321.3340725, 530954.3544807499 184319.767021, 530954.659548125 184319.70328925, 530955.5283713749 184319.94821925, 530955.75614125 184319.86574275, 530957.023819375 184315.35953275, 530956.8661325 184315.173336, 530955.2315491249 184314.967145, 530953.13833425 184314.031162875, 530950.32470725 184313.39759425, 530948.70867525 184320.055688375, 530947.4966512499 184322.986099625, 530947.1328378749 184324.531907125, 530946.4825087499 184324.566897125, 530946.515489 184322.8398915, 530947.0596629999 184320.79672625, 530947.0442035 184320.171905125, 530947.8027491249 184317.536409625, 530948.1603786249 184313.431334625, 530948.511824375 184311.393168, 530948.3067284999 184310.829579375, 530948.9436595 184307.93040925, 530948.9220161249 184304.763815625, 530948.76536 184304.59761325, 530940.700659625 184304.7538185, 530940.570799875 184304.90877425, 530941.339651875 184328.14212375, 530941.650902875 184328.343316125, 530963.7167476249 184335.467526875, 530963.969252625 184335.417541125, 530964.1475521249 184335.1963545, 530965.495619625 184331.617378875, 530966.2675635 184330.2702645, 530968.07220125 184325.030514375, 530968.180417625 184324.743096625, 530968.079415625 184324.53690575, 530959.025307875 184321.892662625, 530958.6233612499 184321.90265975, 530958.455368125 184322.07636, 530957.163985375 184321.785193375), (530909.475582625 184315.15834025, 530909.1045548749 184315.0458725, 530908.9128571249 184315.19707925, 530908.158434125 184321.37781, 530908.456286875 184321.515270625, 530920.2343567499 184326.883733875, 530920.478616625 184326.82999925, 530922.922246625 184321.57775275, 530922.940798 184321.335322125, 530922.762498625 184321.047904375, 530909.475582625 184315.15834025), (530924.487777625 184322.413763375, 530922.09155675 184327.5910315, 530922.1224757499 184327.8809485, 530934.99095475 184333.68428725, 530935.207387625 184333.509337375, 530936.1194975 184331.739843875, 530936.28852125 184331.66361575, 530936.6358444999 184331.801076375, 530936.68840675 184331.94478525, 530935.8288591249 184333.8579875, 530935.859778125 184334.124161375, 530938.75894775 184335.3638065, 530939.02691225 184335.30882225, 530938.856857875 184328.47202925, 530938.505412125 184328.140874125, 530925.297854875 184322.44250525, 530924.8526214999 184322.307543875, 530924.487777625 184322.413763375), (530941.846723125 184336.418504625, 530960.4960207499 184343.44524325, 530960.86601775 184343.43649575, 530963.201431375 184337.575673375, 530963.100429375 184337.257014625, 530941.686975 184329.975349, 530941.364387 184330.05282675, 530941.51795125 184336.242305, 530941.846723125 184336.418504625), (530976.694473875 184231.41606125, 530976.4028048749 184231.553521875, 530975.2113935 184237.86171625, 530974.86407025 184241.090791875, 530974.32401875 184247.155306, 530973.62009675 184255.8590645, 530973.631433625 184256.313934375, 530973.83034575 184256.373917125, 530981.91153625 184256.14648225, 530982.0362428749 184255.88280775, 530981.9867725 184253.86713475, 530982.562896125 184253.23481575, 530985.32293025 184253.048619, 530985.48164775 184252.9698915, 530985.475463875 184252.70871625, 530984.7406228749 184233.726649875, 530984.4056672499 184233.474222125, 530976.694473875 184231.41606125), (530995.0088158749 184235.96475925, 530992.9166316249 184235.68858825, 530991.4521026249 184235.36368125, 530987.785111625 184234.337725, 530987.054393125 184234.257747875, 530986.9255639999 184234.3914595, 530987.671742125 184252.45753825, 530987.849010875 184252.912408, 530988.312795625 184252.933651875, 530990.6286271249 184252.877418, 530990.830631125 184253.003631875, 530990.973889 184255.441684, 530991.0120224999 184255.6528735, 530991.166617375 184255.721603875, 530995.728197375 184255.6041375, 530996.242483125 184255.315470125, 530995.3128525 184236.21968625, 530995.0088158749 184235.96475925), (530972.391582625 184241.000817625, 530972.455481875 184239.5899715, 530972.8100195 184236.534596125, 530973.0882902499 184235.742322875, 530974.39410175 184230.9924325, 530974.25393575 184230.701265875, 530974.05605425 184230.738755125, 530963.505468 184236.432125375, 530963.3436586249 184236.5995775, 530965.6615515 184252.629988875, 530968.799827875 184273.685211875, 530969.036873375 184273.8751575, 530969.9974229999 184273.885154625, 530970.191181875 184273.716452875, 530971.5608927499 184255.56664825, 530971.5835666249 184248.45743325, 530971.5856278749 184247.211539875, 530972.391582625 184241.000817625), (530984.68187675 184254.691898625, 530984.32424725 184254.93058025, 530983.9686789999 184255.29922475, 530983.9594033749 184258.935683875, 530984.1974795 184259.159369875, 530984.668478625 184259.475529375, 530988.6704251249 184259.346816125, 530989.5083295 184258.40833475, 530989.40217425 184255.462927875, 530989.02496275 184254.94807525, 530988.3272245 184254.634415125, 530984.68187675 184254.691898625), (530978.6547371249 184273.250336375, 530979.913139625 184273.28532625, 530980.148123875 184273.4102905, 530980.086285875 184274.91860875, 530980.653133875 184275.10230625, 530986.33295025 184275.848342625, 530986.4947596249 184275.680890625, 530985.8701962499 184261.216281, 530985.702203125 184261.12130825, 530982.8236461249 184261.19128825, 530982.2464918749 184260.615203125, 530982.1578575 184258.3570995, 530981.98883375 184258.229636, 530973.62009675 184258.498309, 530973.427368375 184258.731992125, 530972.475063875 184273.693959375, 530972.580188375 184273.92139425, 530978.161064125 184274.70367025, 530978.4218141249 184274.533719, 530978.39501775 184273.485269125, 530978.6547371249 184273.250336375), (530989.023932125 184276.24198, 530996.50014125 184277.339165875, 530996.961864625 184277.26293775, 530996.382649125 184257.94721675, 530996.20847225 184257.7560215, 530991.5479513749 184257.90098, 530991.10787125 184258.172152375, 530991.1583722499 184260.891374, 530988.446777875 184260.99009575, 530988.187058375 184261.192537875, 530988.755967625 184276.085774625, 530989.023932125 184276.24198), (530981.357055875 184292.106188875, 530981.34778025 184291.7163005, 530982.8659021249 184282.825095625, 530982.997823125 184282.5701685, 530983.2760938749 184282.551423875, 530985.64861025 184282.907572, 530985.77331675 184282.790105625, 530986.5143416249 184278.56256575, 530986.58545525 184277.68906575, 530986.350471 184277.534110125, 530972.624505625 184275.525935, 530972.1864867499 184275.650899125, 530971.9824214999 184275.839595125, 530971.944288 184277.07924025, 530972.2174056249 184278.74751275, 530974.244660125 184288.515966625, 530975.5226445 184290.5041475, 530977.0572565 184295.37650275, 530977.293271375 184295.50771525, 530977.533408875 184295.868861875, 530977.3293435 184296.9985385, 530977.406641 184297.29470375, 530977.619982 184297.4734025, 530982.9926698749 184298.214440375, 530983.22043975 184298.048238, 530984.1315189999 184292.727261125, 530984.057313375 184292.5685565, 530981.708501625 184292.23615175, 530981.357055875 184292.106188875), (530988.849755125 184285.319381625, 530988.73020175 184285.1731735, 530984.8313185 184284.498366625, 530984.462352 184284.575844375, 530983.382249 184290.577876375, 530983.57394675 184290.81405875, 530987.543943625 184291.52135625, 530987.80881625 184291.468871375, 530988.867276 184285.57055975, 530988.849755125 184285.319381625), (530988.8095605 184277.897756, 530988.5910663749 184278.026469125, 530987.739763875 184282.928815875, 530987.78923425 184283.24372575, 530988.01494275 184283.34869575, 530990.791467125 184283.8173115, 530990.854335625 184284.1459675, 530989.2754065 184293.28585125, 530989.153791875 184293.41331475, 530986.4597181249 184292.900961375, 530986.2237032499 184292.933452125, 530986.104149875 184293.143392, 530985.24872475 184297.852044125, 530985.179672375 184298.44562425, 530985.321899625 184298.579336, 530993.538103 184299.878964, 530993.7452602499 184299.84647325, 530993.893671375 184299.650279375, 530994.8707109999 184292.559809, 530997.3298005 184292.541064375, 530997.59982625 184293.345834, 531000.1444582499 184292.885965625, 530997.5122224999 184279.763472, 530997.348351875 184279.32734675, 530997.00927375 184279.074919, 530989.2125378749 184277.887758875, 530988.8095605 184277.897756), (530997.787401375 184294.771675875, 530997.682276875 184294.99411225, 530995.552989875 184294.88039475, 530995.390149875 184295.00785825, 530994.5460617499 184301.84840025, 530994.7305449999 184302.009604125, 531001.6811314999 184303.8490775, 531002.0995683749 184303.90781075, 531002.263439 184303.806589625, 531002.260347125 184303.669129, 531000.3454316249 184293.705731, 530997.788432 184294.235579375, 530997.787401375 184294.771675875), (530975.192842125 184299.619038375, 530975.4937868749 184297.730828875, 530975.653534875 184296.717369, 530975.579329375 184295.572696625, 530974.2683646249 184291.337658875, 530974.104494 184291.250183875, 530960.871171 184293.220869875, 530959.9683367499 184293.289600125, 530958.8088751249 184293.248362, 530958.508961 184293.300846875, 530958.397652625 184293.510786875, 530956.84036675 184302.67816275, 530956.917664125 184302.974327875, 530957.0567996249 184302.99432225, 530966.4252502499 184304.99250025, 530966.6550813749 184304.895028125, 530966.8137987499 184304.776312125, 530967.4610359999 184301.9171305, 530967.40847375 184301.665952375, 530967.150815625 184301.5572335, 530960.369252875 184300.09265275, 530960.180647125 184299.9364475, 530960.2579445 184299.337868875, 530960.396049375 184299.28913275, 530961.1618093749 184299.3391185, 530968.3865441249 184300.907419625, 530968.57721125 184301.109861625, 530968.518465125 184301.524742875, 530967.6754076249 184304.94001525, 530967.7516745 184305.21243725, 530967.869166625 184305.27866825, 530973.205782375 184306.412093875, 530973.506727125 184306.404596, 530973.6211273749 184306.333366375, 530975.192842125 184299.619038375), (530980.739707 184307.37681775, 530981.13856175 184307.550518, 530981.150929375 184308.054123875, 530981.5714275 184308.2053305, 530998.645918375 184312.471609375, 530998.946863125 184312.48785475, 530999.146805875 184312.1392045, 530999.354993625 184312.11046275, 530999.914627125 184312.2579205, 530999.881647 184312.762776, 531001.606926 184313.1801565, 531001.859431 184313.082684375, 531002.8230725 184308.952616625, 531002.7921535 184308.65520175, 531002.767418375 184307.624246875, 531002.519035875 184306.023455125, 530994.0482662499 184303.751605375, 530992.7311177499 184302.063338625, 530992.468306375 184301.748428875, 530992.161177875 184301.5259925, 530991.6242182499 184301.37853475, 530977.477754625 184299.2204025, 530977.01397 184299.219152875, 530976.8109353749 184299.419095625, 530975.459776 184306.632030875, 530975.6020032499 184306.76699225, 530980.17079775 184307.80294575, 530980.32230075 184307.340578125, 530980.739707 184307.37681775), (530965.01122225 184306.861965125, 530964.726767625 184306.593292, 530955.827254875 184304.81255175, 530950.729745875 184304.8900295, 530950.5256805 184305.0787255, 530950.551446375 184307.969148125, 530950.417464125 184309.0963255, 530950.2082457499 184310.0185615, 530949.9845983749 184311.285698875, 530950.1536221249 184311.55687125, 530950.48033275 184311.64059725, 530952.303521875 184312.2616695, 530952.5591187499 184312.279164375, 530953.86802225 184312.7052925, 530954.033954 184312.839004125, 530955.2521618749 184313.38384825, 530957.649413375 184313.76124025, 530958.02147175 184313.821223, 530958.340967875 184313.60753425, 530958.608932375 184313.210148, 530958.926367125 184312.92772875, 530970.701345125 184316.634167875, 530970.931176125 184316.53669575, 530971.210477625 184315.681940375, 530973.0316055 184308.732679625, 530973.0707695 184308.456508625, 530973.0182072499 184308.182837, 530966.515945875 184306.77948875, 530966.004752125 184306.745748375, 530965.708960625 184306.95943725, 530965.01122225 184306.861965125), (531001.5224141249 184315.362032, 531001.37606425 184315.08961, 530974.933122625 184308.755173125, 530974.773374625 184308.873889125, 530973.180016625 184315.634454, 530973.3243051249 184315.859389625, 530999.555967 184322.06136425, 530999.855881125 184322.008879375, 531001.5224141249 184315.362032), (530959.322130125 184314.844680125, 530959.04489 184314.8746715, 530958.885141875 184314.9933875, 530957.561809625 184319.5908215, 530957.567993375 184319.841999625, 530957.78030375 184319.974461625, 530968.424677625 184322.95235925, 530968.770970125 184322.92111825, 530970.330317375 184318.478639875, 530970.3231028749 184318.2037185, 530970.226223375 184318.045014, 530959.322130125 184314.844680125), (530997.6111632499 184330.573927625, 530997.88737275 184330.475205875, 530999.53432375 184323.989562375, 530999.484853375 184323.85210175, 530972.898653875 184317.38395325, 530972.504952125 184317.393950375, 530970.681763 184323.311006625, 530970.7569992499 184323.5384415, 530980.441854125 184326.171437875, 530996.6104189999 184330.391479875, 530997.6111632499 184330.573927625), (530995.5602042499 184339.43139225, 530997.3854547499 184332.665828875, 530997.283422 184332.302182875, 530993.969938125 184331.41868575, 530969.96032025 184325.071752625, 530969.5274545 184326.297651625, 530967.98872 184330.60141975, 530968.03715975 184330.71513725, 530973.0635551249 184332.42839675, 530995.306668625 184339.483877125, 530995.5602042499 184339.43139225), (530982.7473793749 184352.748830125, 530983.001945625 184352.71883875, 530985.541424375 184344.836095125, 530985.514628 184344.676140875, 530983.482220375 184344.06006725, 530983.361636375 184343.878869125, 530983.70999025 184342.97537775, 530984.21912275 184342.91789425, 530986.694702375 184343.66018175, 530986.8864 184343.9088605, 530984.069681 184352.78506975, 530984.008873625 184353.1074775, 530985.1559678749 184353.56234725, 530985.07351725 184353.9772285, 530984.92613675 184354.57705675, 530985.1848255 184354.754506, 530990.3235598749 184356.327805625, 530990.601830625 184356.32030775, 530995.06447 184341.898186125, 530994.963468 184341.55703375, 530984.890064625 184338.2217385, 530984.587058625 184339.077743375, 530984.2428272499 184339.223951625, 530982.8648715 184338.7978235, 530982.7432567499 184338.57163825, 530983.0885187499 184337.53068625, 530983.0627528749 184337.416968875, 530967.2641852499 184332.224705125, 530966.987975625 184332.299683625, 530962.343945 184344.111302625, 530962.51296875 184344.406218125, 530972.0298305 184348.64875375, 530977.906497875 184351.030572, 530980.85822975 184352.26646825, 530982.7473793749 184352.748830125))