POLYGON((-21.962370000000004 12.86955500000001, -22.746109999999994 12.86955500000001, -22.746109999999994 14.958395000000007, -17.859980000000014 14.958395000000007, -17.859980000000014 14.203245000000013, -17.501019999999997 14.203245000000013, -17.501019999999997 14.958395000000007, -15.099440000000007 14.958395000000007, -15.099440000000007 14.203245000000013, -14.757549999999998 14.203245000000013, -14.757549999999998 14.958395000000007, -9.91161000000001 14.958395000000007, -9.91161000000001 12.86955500000001, -10.732089999999998 12.86955500000001, -10.732089999999998 12.41077500000001, -9.91161000000001 12.41077500000001, -9.91161000000001 10.18389500000001, -10.732089999999998 10.18389500000001, -10.732089999999998 9.73628499999999, -9.91161000000001 9.73628499999999, -9.91161000000001 8.844505000000009, -9.475730000000002 8.844505000000009, -9.475730000000002 9.73628499999999, -7.452780000000018 9.73628499999999, -7.452780000000018 7.498234999999991, -8.16989000000002 7.498234999999991, -8.16989000000002 7.28047500000001, -7.475819999999999 7.28047500000001, -7.475819999999999 5.844635000000011, -8.16989000000002 5.844635000000011, -8.16989000000002 5.556284999999991, -7.251600000000009 5.556284999999991, -6.901650000000018 4.75702500000001, -6.368409999999998 4.75702500000001, -6.018460000000007 5.556284999999991, -3.565190000000012 5.556284999999991, -3.21525 4.75702500000001, -2.8304799999999974 4.75702500000001, -2.8304799999999974 4.309395000000009, -2.5431100000000018 4.309395000000009, -2.5431100000000018 5.804074999999992, 0.987730000000002 5.804074999999992, 0.987730000000002 6.14478500000001, -1.1666900000000187 6.14478500000001, -1.1666900000000187 8.839254999999989, 3.80413999999998 8.839254999999989, 3.80413999999998 6.14478500000001, 1.6516200000000025 6.14478500000001, 1.6516200000000025 5.804074999999992, 5.2372 5.804074999999992, 5.2372 4.309395000000009, 5.53063999999998 4.309395000000009, 5.53063999999998 5.804074999999992, 16.851320000000005 5.804074999999992, 16.851320000000005 4.309395000000009, 17.12198 4.309395000000009, 17.12198 5.35046499999999, 17.575590000000002 5.804074999999992, 20.328980000000005 5.804074999999992, 20.865269999999995 5.267785000000011, 20.865269999999995 2.6183850000000106, 20.389050000000005 2.14216499999999, 19.375279999999997 2.14216499999999, 19.375279999999997 1.3078049999999906, 20.818919999999995 1.3078049999999906, 20.818919999999995 -7.592014999999998, 19.375279999999997 -7.592014999999998, 19.375279999999997 -7.872224999999988, 22.746109999999994 -7.872224999999988, 22.746109999999994 -11.92922500000001, 18.152339999999995 -11.92922500000001, 18.152339999999995 -13.489604999999989, 16.37973999999999 -13.489604999999989, 16.37973999999999 -11.109875000000013, 16.180020000000006 -11.109875000000013, 16.180020000000006 -13.14008500000001, 12.884479999999993 -13.14008500000001, 12.884479999999993 -11.109875000000013, 12.609859999999975 -11.109875000000013, 12.609859999999975 -13.14008500000001, 9.601439999999986 -13.14008500000001, 9.601439999999986 -11.109875000000013, 9.439160000000005 -11.109875000000013, 9.439160000000005 -13.14008500000001, 6.156109999999979 -13.14008500000001, 6.156109999999979 -12.307765000000012, 5.960189999999981 -12.307765000000012, 5.960189999999981 -13.758085000000008, 2.698869999999981 -13.758085000000008, 2.698869999999981 -11.519115000000008, 5.960189999999981 -11.519115000000008, 5.960189999999981 -11.780695000000005, 6.156109999999979 -11.780695000000005, 6.156109999999979 -10.12304500000001, 4.791039999999979 -10.12304500000001, 4.791039999999979 -11.300994999999993, 2.0098999999999796 -11.300994999999993, 2.0098999999999796 -11.519115000000008, 2.5152599999999814 -11.519115000000008, 2.5152599999999814 -13.758085000000008, 2.0098999999999796 -13.758085000000008, 2.0098999999999796 -14.017114999999984, 3.9244200000000005 -14.017114999999984, 3.9244200000000005 -14.669594999999997, 2.416240000000001 -14.669594999999997, 2.416240000000001 -14.958395000000007, 1.820489999999981 -14.958395000000007, 1.820489999999981 -14.669594999999997, 1.6516200000000025 -14.669594999999997, 1.6516200000000025 -14.958395000000007, 0.987730000000002 -14.958395000000007, 0.987730000000002 -14.669594999999997, 0.8149099999999819 -14.669594999999997, 0.8149099999999819 -14.958395000000007, 0.12721000000000232 -14.958395000000007, 0.12721000000000232 -14.669594999999997, -1.5093300000000176 -14.669594999999997, -1.5093300000000176 -14.017114999999984, 0.5208299999999809 -14.017114999999984, 0.5208299999999809 -13.758085000000008, 0.014410000000000167 -13.758085000000008, 0.014410000000000167 -11.519115000000008, 0.5208299999999809 -11.519115000000008, 0.5208299999999809 -11.300994999999993, -1.3624400000000207 -11.300994999999993, -1.3624400000000207 -11.519115000000008, -0.18394000000001753 -11.519115000000008, -0.18394000000001753 -13.758085000000008, -3.4430200000000015 -13.758085000000008, -3.4430200000000015 -11.519115000000008, -2.05142000000002 -11.519115000000008, -2.05142000000002 -11.300994999999993, -2.2613700000000208 -11.300994999999993, -2.2613700000000208 -10.12304500000001, -3.7297399999999987 -10.12304500000001, -3.7297399999999987 -13.12210500000001, -6.776470000000019 -13.12210500000001, -6.776470000000019 -11.078075000000009, -7.149319999999999 -11.078075000000009, -7.149319999999999 -13.12210500000001, -9.78059 -13.12210500000001, -9.78059 -11.078075000000009, -10.11083000000001 -11.078075000000009, -10.11083000000001 -13.12210500000001, -13.38127 -13.12210500000001, -13.38127 -11.078075000000009, -13.573020000000009 -11.078075000000009, -13.573020000000009 -13.662735000000012, -15.320100000000005 -13.662735000000012, -15.320100000000005 -11.894354999999985, -20.284350000000003 -11.894354999999985, -20.284350000000003 -7.888864999999987, -17.795500000000015 -7.888864999999987, -17.795500000000015 -7.611914999999991, -19.429859999999998 -7.611914999999991, -19.429859999999998 1.3084750000000143, -17.795500000000015 1.3084750000000143, -17.795500000000015 2.437405000000001, -18.539350000000017 2.437405000000001, -18.539350000000017 1.4655950000000104, -20.482969999999998 1.4655950000000104, -20.482969999999998 3.7811350000000106, -19.715119999999995 3.7811350000000106, -19.715119999999995 3.985095, -20.482969999999998 3.985095, -20.482969999999998 5.46080500000001, -18.539350000000017 5.46080500000001, -18.539350000000017 5.220854999999981, -18.191420000000004 5.220854999999981, -18.191420000000004 5.364824999999989, -16.967660000000016 5.364824999999989, -16.967660000000016 5.1728650000000105, -17.134039999999995 5.00648500000001, -17.032060000000016 4.904505000000009, -16.594529999999995 5.342035, -16.594529999999995 5.986324999999991, -16.965619999999994 5.986324999999991, -16.965619999999994 7.14597500000001, -16.594529999999995 7.14597500000001, -16.594529999999995 7.498234999999991, -17.501019999999997 7.498234999999991, -17.501019999999997 8.331714999999992, -17.859980000000014 8.331714999999992, -17.859980000000014 7.498234999999991, -22.746109999999994 7.498234999999991, -22.746109999999994 9.73628499999999, -21.962370000000004 9.73628499999999, -21.962370000000004 10.18389500000001, -22.746109999999994 10.18389500000001, -22.746109999999994 12.41077500000001, -21.962370000000004 12.41077500000001, -21.962370000000004 12.86955500000001), (-14.531779999999994 -11.830445000000013, -14.531779999999994 -11.078075000000009, -14.723539999999996 -11.078075000000009, -14.723539999999996 -12.06480499999999, -13.977829999999994 -12.06480499999999, -13.977829999999994 -11.830445000000013, -14.531779999999994 -11.830445000000013), (-10.11083000000001 -10.49749500000001, -9.78059 -10.49749500000001, -9.78059 -8.285684999999987, -8.752030000000019 -8.285684999999987, -8.752030000000019 -8.131154999999987, -10.00598 -8.131154999999987, -10.00598 -4.780014999999987, -8.752030000000019 -4.780014999999987, -8.752030000000019 -4.439994999999987, -9.236640000000012 -4.439994999999987, -10.00598 -3.670644999999999, -10.00598 -3.4593250000000095, -10.201460000000008 -3.4593250000000095, -10.201460000000008 -4.439994999999987, -14.548600000000016 -4.439994999999987, -14.548600000000016 -3.4593250000000095, -15.694900000000008 -3.4593250000000095, -15.694900000000008 -7.611914999999991, -17.111639999999998 -7.611914999999991, -17.111639999999998 -7.888864999999987, -14.723539999999996 -7.888864999999987, -14.723539999999996 -10.49749500000001, -14.531779999999994 -10.49749500000001, -14.531779999999994 -10.211195000000012, -13.573020000000009 -10.211195000000012, -13.573020000000009 -10.49749500000001, -13.38127 -10.49749500000001, -13.38127 -8.413524999999986, -10.11083000000001 -8.413524999999986, -10.11083000000001 -10.49749500000001), (-8.752030000000019 -1.3748950000000106, -10.00598 -1.3748950000000106, -10.00598 2.0031050000000135, -8.752030000000019 2.0031050000000135, -8.752030000000019 2.359245000000004, -9.68488000000001 2.359245000000004, -10.03482 3.1164450000000103, -10.568070000000002 3.1164450000000103, -10.91801 2.359245000000004, -13.438539999999998 2.359245000000004, -13.788480000000007 3.1164450000000103, -14.188399999999996 3.1164450000000103, -14.188399999999996 3.6051549999999892, -14.936089999999997 3.6051549999999892, -15.755900000000006 2.7853350000000106, -16.931670000000018 2.7853350000000106, -17.038130000000006 2.8917849999999903, -17.146100000000015 2.78381499999999, -17.111639999999998 2.749345000000011, -17.111639999999998 1.3084750000000143, -15.694900000000008 1.3084750000000143, -15.694900000000008 -2.825035000000009, -14.548600000000016 -2.825035000000009, -14.548600000000016 -1.7051549999999884, -10.201460000000008 -1.7051549999999884, -10.201460000000008 -2.825035000000009, -10.00598 -2.825035000000009, -10.00598 -2.5797949999999856, -9.131340000000002 -1.7051549999999884, -8.752030000000019 -1.7051549999999884, -8.752030000000019 -1.3748950000000106), (-19.223219999999994 3.7811350000000106, -18.539350000000017 3.7811350000000106, -18.539350000000017 2.9413050000000114, -18.119439999999994 2.9413050000000114, -18.119439999999994 3.30123499999999, -17.663529999999994 3.30123499999999, -17.495639999999995 3.13334499999999, -17.387660000000004 3.241324999999989, -17.600260000000016 3.4539249999999897, -17.600260000000016 4.33630500000001, -17.388800000000014 4.547765000000011, -17.490779999999994 4.64974500000001, -17.663529999999994 4.477005000000011, -18.191420000000004 4.477005000000011, -18.191420000000004 4.76494500000001, -18.539350000000017 4.76494500000001, -18.539350000000017 3.985095, -19.223219999999994 3.985095, -19.223219999999994 3.7811350000000106), (-15.666810000000007 6.35743499999999, -15.666810000000007 5.986324999999991, -15.898740000000004 5.986324999999991, -15.898740000000004 5.183725000000021, -15.024409999999994 4.309395000000009, -14.188399999999996 4.309395000000009, -14.188399999999996 4.75702500000001, -13.788480000000007 4.75702500000001, -13.438539999999998 5.556284999999991, -10.91801 5.556284999999991, -10.568070000000002 4.75702500000001, -10.03482 4.75702500000001, -9.68488000000001 5.556284999999991, -8.752030000000019 5.556284999999991, -8.752030000000019 5.844635000000011, -9.475730000000002 5.844635000000011, -9.475730000000002 6.35743499999999, -9.757769999999999 6.35743499999999, -9.757769999999999 5.844635000000011, -12.167920000000011 5.844635000000011, -12.167920000000011 6.35743499999999, -12.39868 6.35743499999999, -12.39868 5.844635000000011, -14.783190000000008 5.844635000000011, -14.783190000000008 6.35743499999999, -15.666810000000007 6.35743499999999), (-15.666810000000007 7.14597500000001, -15.666810000000007 6.818955000000011, -14.783190000000008 6.818955000000011, -14.783190000000008 7.28047500000001, -12.39868 7.28047500000001, -12.39868 6.818955000000011, -12.167920000000011 6.818955000000011, -12.167920000000011 7.28047500000001, -9.757769999999999 7.28047500000001, -9.757769999999999 6.818955000000011, -9.475730000000002 6.818955000000011, -9.475730000000002 7.28047500000001, -8.752030000000019 7.28047500000001, -8.752030000000019 7.498234999999991, -9.475730000000002 7.498234999999991, -9.475730000000002 8.331714999999992, -9.91161000000001 8.331714999999992, -9.91161000000001 7.498234999999991, -14.757549999999998 7.498234999999991, -14.757549999999998 8.331714999999992, -15.099440000000007 8.331714999999992, -15.099440000000007 7.498234999999991, -15.898740000000004 7.498234999999991, -15.898740000000004 7.14597500000001, -15.666810000000007 7.14597500000001), (-17.501019999999997 13.562255000000022, -17.859980000000014 13.562255000000022, -17.859980000000014 12.86955500000001, -21.372649999999997 12.86955500000001, -21.372649999999997 12.41077500000001, -17.859980000000014 12.41077500000001, -17.859980000000014 10.18389500000001, -21.372649999999997 10.18389500000001, -21.372649999999997 9.73628499999999, -17.859980000000014 9.73628499999999, -17.859980000000014 8.844505000000009, -17.501019999999997 8.844505000000009, -17.501019999999997 13.562255000000022), (-11.270530000000011 10.18389500000001, -14.757549999999998 10.18389500000001, -14.757549999999998 12.41077500000001, -11.270530000000011 12.41077500000001, -11.270530000000011 12.86955500000001, -14.757549999999998 12.86955500000001, -14.757549999999998 13.562255000000022, -15.099440000000007 13.562255000000022, -15.099440000000007 8.844505000000009, -14.757549999999998 8.844505000000009, -14.757549999999998 9.73628499999999, -11.270530000000011 9.73628499999999, -11.270530000000011 10.18389500000001), (16.872909999999983 -11.692044999999986, 16.872909999999983 -11.92922500000001, 17.503219999999974 -11.92922500000001, 17.503219999999974 -11.109875000000013, 17.241079999999986 -11.109875000000013, 17.241079999999986 -11.692044999999986, 16.872909999999983 -11.692044999999986), (-6.776470000000019 -10.49749500000001, -6.776470000000019 -8.413524999999986, -3.7297399999999987 -8.413524999999986, -3.7297399999999987 -9.452195000000005, -2.2613700000000208 -9.452195000000005, -2.2613700000000208 -8.413524999999986, -2.05142000000002 -8.413524999999986, -2.05142000000002 -8.131154999999987, -5.5875 -8.131154999999987, -5.5875 -4.780014999999987, -2.05142000000002 -4.780014999999987, -2.05142000000002 -3.4593250000000095, -2.9398300000000193 -3.4593250000000095, -2.9398300000000193 -4.439994999999987, -6.881869999999999 -4.439994999999987, -6.881869999999999 -3.4593250000000095, -7.149319999999999 -3.4593250000000095, -7.149319999999999 -3.8558049999999975, -7.7335100000000185 -4.439994999999987, -8.16989000000002 -4.439994999999987, -8.16989000000002 -4.780014999999987, -7.149319999999999 -4.780014999999987, -7.149319999999999 -8.131154999999987, -8.16989000000002 -8.131154999999987, -8.16989000000002 -8.285684999999987, -7.149319999999999 -8.285684999999987, -7.149319999999999 -10.49749500000001, -6.776470000000019 -10.49749500000001), (4.791039999999979 -9.452195000000005, 6.156109999999979 -9.452195000000005, 6.156109999999979 -8.413524999999986, 9.439160000000005 -8.413524999999986, 9.439160000000005 -10.391144999999986, 9.601439999999986 -10.391144999999986, 9.601439999999986 -8.31247500000001, 10.598719999999975 -8.31247500000001, 10.598719999999975 -8.126185000000012, 9.606730000000004 -8.126185000000012, 9.606730000000004 -5.459784999999988, 10.446399999999986 -5.459784999999988, 10.446399999999986 -5.142634999999986, 9.647789999999976 -5.142634999999986, 9.104630000000004 -4.439994999999987, 9.104630000000004 -3.8252650000000097, 8.836270000000004 -3.8252650000000097, 8.836270000000004 -4.439994999999987, 5.53063999999998 -4.439994999999987, 5.53063999999998 -3.4593250000000095, 5.2372 -3.4593250000000095, 5.2372 -4.439994999999987, 3.387430000000002 -4.439994999999987, 3.387430000000002 -3.4593250000000095, 3.165479999999998 -3.4593250000000095, 3.165479999999998 -6.097985000000011, 2.5152599999999814 -6.097985000000011, 2.5152599999999814 -6.3055349999999875, 3.165479999999998 -6.3055349999999875, 3.165479999999998 -8.131154999999987, 2.5152599999999814 -8.131154999999987, 2.5152599999999814 -8.413524999999986, 4.791039999999979 -8.413524999999986, 4.791039999999979 -9.452195000000005), (16.180020000000006 -10.391144999999986, 16.37973999999999 -10.391144999999986, 16.37973999999999 -8.413524999999986, 17.241079999999986 -8.413524999999986, 17.241079999999986 -10.391144999999986, 17.503219999999974 -10.391144999999986, 17.503219999999974 -7.872224999999988, 18.594610000000007 -7.872224999999988, 18.594610000000007 -7.592014999999998, 17.017950000000006 -7.592014999999998, 17.017950000000006 -3.4593250000000095, 16.832539999999973 -3.4593250000000095, 16.832539999999973 -4.439994999999987, 13.422689999999983 -4.439994999999987, 13.422689999999983 -3.8252650000000097, 13.056759999999986 -3.8252650000000097, 13.056759999999986 -4.439994999999987, 12.521689999999996 -5.142634999999986, 11.812569999999983 -5.142634999999986, 11.812569999999983 -5.459784999999988, 12.480629999999985 -5.459784999999988, 12.480629999999985 -8.126185000000012, 11.557039999999976 -8.126185000000012, 11.557039999999976 -8.31247500000001, 12.609859999999975 -8.31247500000001, 12.609859999999975 -10.391144999999986, 12.884479999999993 -10.391144999999986, 12.884479999999993 -8.413524999999986, 16.180020000000006 -8.413524999999986, 16.180020000000006 -10.391144999999986), (0.014410000000000167 -6.3055349999999875, 0.014410000000000167 -6.097985000000011, -0.6608200000000174 -6.097985000000011, -0.6608200000000174 -3.4593250000000095, -1.3624400000000207 -3.4593250000000095, -1.3624400000000207 -4.780014999999987, -0.9609199999999991 -4.780014999999987, -0.9609199999999991 -8.131154999999987, -1.3624400000000207 -8.131154999999987, -1.3624400000000207 -8.413524999999986, 0.014410000000000167 -8.413524999999986, 0.014410000000000167 -8.131154999999987, -0.6608200000000174 -8.131154999999987, -0.6608200000000174 -6.3055349999999875, 0.014410000000000167 -6.3055349999999875), (-0.6608200000000174 0.4744550000000004, -1.879169999999999 0.4744550000000004, -1.879169999999999 -1.3748950000000106, -6.12180000000002 -1.3748950000000106, -6.12180000000002 2.069975000000008, -2.894499999999998 2.069975000000008, -2.894499999999998 1.5260450000000134, -0.6608200000000174 1.5260450000000134, -0.6608200000000174 1.7972349999999893, 0.987730000000002 1.7972349999999893, 0.987730000000002 2.14216499999999, -2.5431100000000018 2.14216499999999, -2.5431100000000018 3.6051549999999892, -2.8304799999999974 3.6051549999999892, -2.8304799999999974 3.1164450000000103, -3.21525 3.1164450000000103, -3.565190000000012 2.359245000000004, -6.018460000000007 2.359245000000004, -6.368409999999998 3.1164450000000103, -6.901650000000018 3.1164450000000103, -7.251600000000009 2.359245000000004, -8.16989000000002 2.359245000000004, -8.16989000000002 2.0031050000000135, -7.149319999999999 2.0031050000000135, -7.149319999999999 -1.3748950000000106, -8.16989000000002 -1.3748950000000106, -8.16989000000002 -1.7051549999999884, -7.94713000000001 -1.7051549999999884, -7.149319999999999 -2.502954999999993, -7.149319999999999 -2.825035000000009, -6.881869999999999 -2.825035000000009, -6.881869999999999 -1.7051549999999884, -2.9398300000000193 -1.7051549999999884, -2.9398300000000193 -2.825035000000009, -0.6608200000000174 -2.825035000000009, -0.6608200000000174 -0.02414499999998725, 0.987730000000002 -0.02414499999998725, 0.987730000000002 0.2296849999999921, -0.6608200000000174 0.2296849999999921, -0.6608200000000174 0.4744550000000004), (1.6516200000000025 0.2296849999999921, 1.6516200000000025 -0.02414499999998725, 3.165479999999998 -0.02414499999998725, 3.165479999999998 -2.825035000000009, 3.387430000000002 -2.825035000000009, 3.387430000000002 -1.7051549999999884, 5.2372 -1.7051549999999884, 5.2372 -2.825035000000009, 5.53063999999998 -2.825035000000009, 5.53063999999998 -1.7051549999999884, 8.836270000000004 -1.7051549999999884, 8.836270000000004 -2.3127149999999945, 9.104630000000004 -2.3127149999999945, 9.104630000000004 -1.7051549999999884, 9.647789999999976 -1.1173249999999875, 10.446399999999986 -1.1173249999999875, 10.446399999999986 -0.8489649999999841, 9.647789999999976 -0.8489649999999841, 9.647789999999976 1.7972349999999893, 10.598719999999975 1.7972349999999893, 10.598719999999975 2.14216499999999, 5.53063999999998 2.14216499999999, 5.53063999999998 3.6051549999999892, 5.2372 3.6051549999999892, 5.2372 2.14216499999999, 1.6516200000000025 2.14216499999999, 1.6516200000000025 1.7972349999999893, 3.165479999999998 1.7972349999999893, 3.165479999999998 1.2359550000000126, 3.77766 1.2359550000000126, 3.77766 1.7972349999999893, 5.083079999999979 1.7972349999999893, 5.083079999999979 0.5107150000000076, 3.165479999999998 0.5107150000000076, 3.165479999999998 0.2296849999999921, 1.6516200000000025 0.2296849999999921), (16.832539999999973 -2.825035000000009, 17.017950000000006 -2.825035000000009, 17.017950000000006 1.3078049999999906, 18.594610000000007 1.3078049999999906, 18.594610000000007 2.14216499999999, 17.501979999999982 2.14216499999999, 17.12198 2.5221650000000038, 17.12198 3.6051549999999892, 16.851320000000005 3.6051549999999892, 16.851320000000005 2.14216499999999, 11.557039999999976 2.14216499999999, 11.557039999999976 1.7972349999999893, 12.521689999999996 1.7972349999999893, 12.521689999999996 -0.8489649999999841, 11.812569999999983 -0.8489649999999841, 11.812569999999983 -1.1173249999999875, 12.521689999999996 -1.1173249999999875, 13.056759999999986 -1.7051549999999884, 13.056759999999986 -2.3127149999999945, 13.422689999999983 -2.3127149999999945, 13.422689999999983 -1.7051549999999884, 16.832539999999973 -1.7051549999999884, 16.832539999999973 -2.825035000000009))